start=new Date('2022-12-25T00:00:00.000Z').valueOf();
sats=[{"MEAN_MOTION_DDOT":"0.0000000000000","TIME_SYSTEM":"UTC","RA_OF_ASC_NODE":"164.3910","CENTER_NAME":"EARTH","SEMIMAJOR_AXIS":"6925.356","MEAN_ANOMALY":"268.8414","RCS_SIZE":"LARGE","APOAPSIS":"548.280","MEAN_MOTION_DOT":"0.00001409","COUNTRY_CODE":"US","FILE":"3721189","PERIAPSIS":"546.162","DECAY_DATE":null,"BSTAR":"0.00011350000000","INCLINATION":"53.0538","EPOCH":"2022-12-24T11:30:14.181984","REV_AT_EPOCH":"16388","ECCENTRICITY":"0.00015290","OBJECT_TYPE":"PAYLOAD","CLASSIFICATION_TYPE":"U","TLE_LINE2":"2 44972  53.0538 164.3910 0001529  91.2751 268.8414 15.06397496163887","OBJECT_NAME":"STARLINK-1107","ARG_OF_PERICENTER":"91.2751","REF_FRAME":"TEME","OBJECT_ID":"2020-001BL","EPHEMERIS_TYPE":"0","ELEMENT_SET_NO":"999","SITE":"AFETR","GP_ID":"221344546","MEAN_MOTION":"15.06397496","TLE_LINE1":"1 44972U 20001BL  22358.47933081  .00001409  00000-0  11350-3 0  9991","PERIOD":"95.592","MEAN_ELEMENT_THEORY":"SGP4","NORAD_CAT_ID":"44972","LAUNCH_DATE":"2020-01-07"},{"MEAN_ELEMENT_THEORY":"SGP4","PERIOD":"95.593","NORAD_CAT_ID":"44973","LAUNCH_DATE":"2020-01-07","MEAN_MOTION":"15.06389409","TLE_LINE1":"1 44973U 20001BM  22358.78894469  .00001446  00000-0  11596-3 0  9995","ELEMENT_SET_NO":"999","SITE":"AFETR","EPHEMERIS_TYPE":"0","OBJECT_ID":"2020-001BM","GP_ID":"221376052","OBJECT_TYPE":"PAYLOAD","ECCENTRICITY":"0.00013510","REF_FRAME":"TEME","ARG_OF_PERICENTER":"69.1217","TLE_LINE2":"2 44973  53.0541 162.9971 0001351  69.1217 290.9917 15.06389409163921","OBJECT_NAME":"STARLINK-1115","CLASSIFICATION_TYPE":"U","EPOCH":"2022-12-24T18:56:04.821216","INCLINATION":"53.0541","REV_AT_EPOCH":"16392","FILE":"3721442","COUNTRY_CODE":"US","MEAN_MOTION_DOT":"0.00001446","BSTAR":"0.00011596000000","DECAY_DATE":null,"PERIAPSIS":"546.310","RA_OF_ASC_NODE":"162.9971","TIME_SYSTEM":"UTC","MEAN_MOTION_DDOT":"0.0000000000000","RCS_SIZE":"LARGE","APOAPSIS":"548.182","MEAN_ANOMALY":"290.9917","SEMIMAJOR_AXIS":"6925.381","CENTER_NAME":"EARTH"},{"EPOCH":"2022-12-24T19:54:25.793280","INCLINATION":"53.0544","REV_AT_EPOCH":"16026","FILE":"3721442","COUNTRY_CODE":"US","MEAN_MOTION_DOT":"0.00000426","BSTAR":"0.00004751500000","DECAY_DATE":null,"PERIAPSIS":"546.173","RA_OF_ASC_NODE":"122.8089","TIME_SYSTEM":"UTC","MEAN_MOTION_DDOT":"0.0000000000000","APOAPSIS":"548.250","RCS_SIZE":"LARGE","SEMIMAJOR_AXIS":"6925.347","MEAN_ANOMALY":"296.1298","CENTER_NAME":"EARTH","MEAN_ELEMENT_THEORY":"SGP4","PERIOD":"95.592","LAUNCH_DATE":"2020-01-29","NORAD_CAT_ID":"45044","MEAN_MOTION":"15.06400642","TLE_LINE1":"1 45044U 20006A   22358.82946520  .00000426  00000-0  47515-4 0  9999","ELEMENT_SET_NO":"999","SITE":"AFETR","EPHEMERIS_TYPE":"0","OBJECT_ID":"2020-006A","GP_ID":"221377559","OBJECT_TYPE":"PAYLOAD","ECCENTRICITY":"0.00014990","ARG_OF_PERICENTER":"63.9845","REF_FRAME":"TEME","TLE_LINE2":"2 45044  53.0544 122.8089 0001499  63.9845 296.1298 15.06400642160268","OBJECT_NAME":"STARLINK-1132","CLASSIFICATION_TYPE":"U"},{"RCS_SIZE":"LARGE","APOAPSIS":"548.246","CENTER_NAME":"EARTH","SEMIMAJOR_AXIS":"6925.360","MEAN_ANOMALY":"289.7435","RA_OF_ASC_NODE":"143.1670","MEAN_MOTION_DDOT":"0.0000000000000","TIME_SYSTEM":"UTC","PERIAPSIS":"546.203","BSTAR":"0.00006593700000","DECAY_DATE":null,"COUNTRY_CODE":"US","FILE":"3721442","MEAN_MOTION_DOT":"0.00000701","REV_AT_EPOCH":"15997","INCLINATION":"53.0548","EPOCH":"2022-12-24T17:58:57.001440","TLE_LINE2":"2 45045  53.0548 143.1670 0001475  70.3713 289.7435 15.06396344159975","OBJECT_NAME":"STARLINK-1120","ARG_OF_PERICENTER":"70.3713","REF_FRAME":"TEME","CLASSIFICATION_TYPE":"U","OBJECT_TYPE":"PAYLOAD","ECCENTRICITY":"0.00014750","GP_ID":"221376308","ELEMENT_SET_NO":"999","SITE":"AFETR","EPHEMERIS_TYPE":"0","OBJECT_ID":"2020-006B","TLE_LINE1":"1 45045U 20006B   22358.74927085  .00000701  00000-0  65937-4 0  9990","MEAN_MOTION":"15.06396344","NORAD_CAT_ID":"45045","LAUNCH_DATE":"2020-01-29","MEAN_ELEMENT_THEORY":"SGP4","PERIOD":"95.592"},{"GP_ID":"221376558","OBJECT_ID":"2020-006C","EPHEMERIS_TYPE":"0","ELEMENT_SET_NO":"999","SITE":"AFETR","CLASSIFICATION_TYPE":"U","OBJECT_NAME":"STARLINK-1129","TLE_LINE2":"2 45046  52.9872 112.4858 0003560 192.0107 168.0806 15.26536831160351","ARG_OF_PERICENTER":"192.0107","REF_FRAME":"TEME","ECCENTRICITY":"0.00035600","OBJECT_TYPE":"PAYLOAD","NORAD_CAT_ID":"45046","LAUNCH_DATE":"2020-01-29","PERIOD":"94.331","MEAN_ELEMENT_THEORY":"SGP4","TLE_LINE1":"1 45046U 20006C   22358.79788200  .00045306  00000-0  17133-2 0  9993","MEAN_MOTION":"15.26536831","MEAN_ANOMALY":"168.0806","SEMIMAJOR_AXIS":"6864.311","CENTER_NAME":"EARTH","RCS_SIZE":"LARGE","APOAPSIS":"488.620","MEAN_MOTION_DDOT":"0.0000000000000","TIME_SYSTEM":"UTC","RA_OF_ASC_NODE":"112.4858","REV_AT_EPOCH":"16035","INCLINATION":"52.9872","EPOCH":"2022-12-24T19:08:57.004800","PERIAPSIS":"483.733","BSTAR":"0.00171330000000","DECAY_DATE":null,"MEAN_MOTION_DOT":"0.00045306","COUNTRY_CODE":"US","FILE":"3721442"},{"EPOCH":"2022-12-24T16:30:05.578848","INCLINATION":"53.0531","REV_AT_EPOCH":"15996","FILE":"3721442","COUNTRY_CODE":"US","MEAN_MOTION_DOT":"-0.00000558","DECAY_DATE":null,"BSTAR":"-0.00001860800000","PERIAPSIS":"546.438","RA_OF_ASC_NODE":"143.4557","TIME_SYSTEM":"UTC","MEAN_MOTION_DDOT":"0.0000000000000","RCS_SIZE":"LARGE","APOAPSIS":"548.042","SEMIMAJOR_AXIS":"6925.375","CENTER_NAME":"EARTH","MEAN_ANOMALY":"268.3383","MEAN_ELEMENT_THEORY":"SGP4","PERIOD":"95.593","NORAD_CAT_ID":"45047","LAUNCH_DATE":"2020-01-29","MEAN_MOTION":"15.06391495","TLE_LINE1":"1 45047U 20006D   22358.68756457 -.00000558  00000-0 -18608-4 0  9993","ELEMENT_SET_NO":"999","SITE":"AFETR","OBJECT_ID":"2020-006D","EPHEMERIS_TYPE":"0","GP_ID":"221377309","OBJECT_TYPE":"PAYLOAD","ECCENTRICITY":"0.00011580","REF_FRAME":"TEME","ARG_OF_PERICENTER":"91.7738","TLE_LINE2":"2 45047  53.0531 143.4557 0001158  91.7738 268.3383 15.06391495159964","OBJECT_NAME":"STARLINK-1131","CLASSIFICATION_TYPE":"U"},{"MEAN_MOTION_DDOT":"0.0000000000000","TIME_SYSTEM":"UTC","RA_OF_ASC_NODE":"143.1126","SEMIMAJOR_AXIS":"6925.325","MEAN_ANOMALY":"271.5388","CENTER_NAME":"EARTH","APOAPSIS":"548.062","RCS_SIZE":"LARGE","INCLINATION":"53.0545","EPOCH":"2022-12-24T18:16:13.524960","REV_AT_EPOCH":"15997","MEAN_MOTION_DOT":"0.00000962","COUNTRY_CODE":"US","FILE":"3721442","PERIAPSIS":"546.318","BSTAR":"0.00008348000000","DECAY_DATE":null,"EPHEMERIS_TYPE":"0","OBJECT_ID":"2020-006E","SITE":"AFETR","ELEMENT_SET_NO":"999","GP_ID":"221377060","ECCENTRICITY":"0.00012590","OBJECT_TYPE":"PAYLOAD","CLASSIFICATION_TYPE":"U","TLE_LINE2":"2 45048  53.0545 143.1126 0001259  88.5746 271.5388 15.06407603159975","OBJECT_NAME":"STARLINK-1134","REF_FRAME":"TEME","ARG_OF_PERICENTER":"88.5746","PERIOD":"95.592","MEAN_ELEMENT_THEORY":"SGP4","NORAD_CAT_ID":"45048","LAUNCH_DATE":"2020-01-29","MEAN_MOTION":"15.06407603","TLE_LINE1":"1 45048U 20006E   22358.76126765  .00000962  00000-0  83480-4 0  9993"},{"MEAN_MOTION_DOT":"0.00016081","COUNTRY_CODE":"US","FILE":"3721442","PERIAPSIS":"519.235","BSTAR":"0.00086897000000","DECAY_DATE":null,"INCLINATION":"53.0560","EPOCH":"2022-12-24T20:48:50.201280","REV_AT_EPOCH":"16011","MEAN_MOTION_DDOT":"0.0000000000000","TIME_SYSTEM":"UTC","RA_OF_ASC_NODE":"134.0151","SEMIMAJOR_AXIS":"6899.564","MEAN_ANOMALY":"191.3813","CENTER_NAME":"EARTH","APOAPSIS":"523.624","RCS_SIZE":"LARGE","MEAN_MOTION":"15.14852157","TLE_LINE1":"1 45049U 20006F   22358.86724770  .00016081  00000-0  86897-3 0  9998","PERIOD":"95.059","MEAN_ELEMENT_THEORY":"SGP4","NORAD_CAT_ID":"45049","LAUNCH_DATE":"2020-01-29","ECCENTRICITY":"0.00031810","OBJECT_TYPE":"PAYLOAD","CLASSIFICATION_TYPE":"U","TLE_LINE2":"2 45049  53.0560 134.0151 0003181 168.7252 191.3813 15.14852157160116","OBJECT_NAME":"STARLINK-1135","ARG_OF_PERICENTER":"168.7252","REF_FRAME":"TEME","EPHEMERIS_TYPE":"0","OBJECT_ID":"2020-006F","SITE":"AFETR","ELEMENT_SET_NO":"999","GP_ID":"221375809"},{"EPOCH":"2022-12-24T18:32:09.734496","INCLINATION":"53.0555","REV_AT_EPOCH":"15997","FILE":"3721442","COUNTRY_CODE":"US","MEAN_MOTION_DOT":"-0.00001902","DECAY_DATE":null,"BSTAR":"-0.00010886000000","PERIAPSIS":"546.266","RA_OF_ASC_NODE":"143.0725","TIME_SYSTEM":"UTC","MEAN_MOTION_DDOT":"0.0000000000000","RCS_SIZE":"LARGE","APOAPSIS":"548.168","CENTER_NAME":"EARTH","SEMIMAJOR_AXIS":"6925.352","MEAN_ANOMALY":"275.2090","MEAN_ELEMENT_THEORY":"SGP4","PERIOD":"95.592","LAUNCH_DATE":"2020-01-29","NORAD_CAT_ID":"45050","MEAN_MOTION":"15.06398796","TLE_LINE1":"1 45050U 20006G   22358.77233489 -.00001902  00000-0 -10886-3 0  9995","ELEMENT_SET_NO":"999","SITE":"AFETR","EPHEMERIS_TYPE":"0","OBJECT_ID":"2020-006G","GP_ID":"221376059","OBJECT_TYPE":"PAYLOAD","ECCENTRICITY":"0.00013730","ARG_OF_PERICENTER":"84.9056","REF_FRAME":"TEME","TLE_LINE2":"2 45050  53.0555 143.0725 0001373  84.9056 275.2090 15.06398796159977","OBJECT_NAME":"STARLINK-1140","CLASSIFICATION_TYPE":"U"},{"MEAN_MOTION_DOT":"0.00042890","COUNTRY_CODE":"US","FILE":"3721442","PERIAPSIS":"498.196","DECAY_DATE":null,"BSTAR":"0.00185910000000","INCLINATION":"53.0522","EPOCH":"2022-12-24T15:22:13.401696","REV_AT_EPOCH":"16020","MEAN_MOTION_DDOT":"0.0000000000000","TIME_SYSTEM":"UTC","RA_OF_ASC_NODE":"126.1407","SEMIMAJOR_AXIS":"6878.007","MEAN_ANOMALY":"214.1467","CENTER_NAME":"EARTH","APOAPSIS":"501.548","RCS_SIZE":"LARGE","MEAN_MOTION":"15.21979659","TLE_LINE1":"1 45051U 20006H   22358.64043289  .00042890  00000-0  18591-2 0  9998","PERIOD":"94.614","MEAN_ELEMENT_THEORY":"SGP4","LAUNCH_DATE":"2020-01-29","NORAD_CAT_ID":"45051","ECCENTRICITY":"0.00024370","OBJECT_TYPE":"PAYLOAD","CLASSIFICATION_TYPE":"U","TLE_LINE2":"2 45051  53.0522 126.1407 0002437 145.9685 214.1467 15.21979659160207","OBJECT_NAME":"STARLINK-1141","REF_FRAME":"TEME","ARG_OF_PERICENTER":"145.9685","OBJECT_ID":"2020-006H","EPHEMERIS_TYPE":"0","ELEMENT_SET_NO":"999","SITE":"AFETR","GP_ID":"221376810"}];
